ONEWEB-0416             
1 51625U 22012D   25350.29781091  .00000717  00000+0  20170-2 0  9994
2 51625  87.8806  72.7489 0001251 110.3250 249.8012 13.10372551185374
ONEWEB-0422             
1 51626U 22012E   25350.22124526  .00000060  00000+0  12259-3 0  9993
2 51626  87.9118  42.2274 0002271  85.6543 274.4848 13.17648813189715
ONEWEB-0423             
1 51627U 22012F   25350.21448967  .00000069  00000+0  14514-3 0  9996
2 51627  87.9118  42.2387 0001931  99.8499 260.2850 13.17648254189603
ONEWEB-0425             
1 51628U 22012G   25350.30777580  .00000500  00000+0  13948-2 0  9992
2 51628  87.8815  72.7187 0001857 115.3037 244.8283 13.10371802185375
ONEWEB-0428             
1 51629U 22012H   25350.28785174  .00000343  00000+0  94581-3 0  9996
2 51629  87.8808  72.7408 0001732 102.8888 257.2433 13.10375105185332
ONEWEB-0431             
1 51630U 22012J   25350.25781217 -.00000508  00000+0 -14930-2 0  9993
2 51630  87.8814  72.7271 0001356  82.9298 277.1984 13.10371563185385
ONEWEB-0434             
1 51631U 22012K   25350.23487641  .00000507  00000+0  14164-2 0  9992
2 51631  87.8804  72.7673 0002136 121.4297 238.7040 13.10373850185361
ONEWEB-0435             
1 51632U 22012L   25350.24302693  .00000062  00000+0  13997-3 0  9997
2 51632  87.8807  72.7558 0001934  94.1803 265.9545 13.10370064185356
ONEWEB-0436             
1 51633U 22012M   25350.20605146  .00000019  00000+0  15375-4 0  9998
2 51633  87.9117  42.2186 0001856  92.3828 267.7516 13.17647768189583
ONEWEB-0438             
1 51634U 22012N   25350.30279312  .00000677  00000+0  19023-2 0  9994
2 51634  87.8809  72.7446 0001785 110.8845 249.2473 13.10371330185398
ONEWEB-0439             
1 51635U 22012P   25350.30611377  .00000653  00000+0  18328-2 0  9997
2 51635  87.8807  72.7325 0001790 103.8671 256.2656 13.10372382185375
ONEWEB-0442             
1 51636U 22012Q   25350.12250504  .00000071  00000+0  14901-3 0  9997
2 51636  87.9106  42.2826 0001728 120.5838 239.5464 13.17650664189564
ONEWEB-0443             
1 51637U 22012R   25350.21786253  .00000100  00000+0  22445-3 0  9998
2 51637  87.9101  42.2685 0002096 105.5172 254.6191 13.17648757189628
ONEWEB-0444             
1 51638U 22012S   25350.29615533  .00000670  00000+0  18840-2 0  9994
2 51638  87.8809  72.7331 0001763 102.5744 257.5581 13.10373675185382
ONEWEB-0445             
1 51639U 22012T   25350.24136694  .00000162  00000+0  42758-3 0  9998
2 51639  87.8823  72.7120 0001533 108.3452 251.7842 13.10369619185389
ONEWEB-0446             
1 51640U 22012U   25350.29449567  .00000574  00000+0  16081-2 0  9997
2 51640  87.8811  72.7502 0001508 104.4545 255.6750 13.10373769185375
ONEWEB-0448             
1 51641U 22012V   25350.29947999  .00000632  00000+0  17731-2 0  9998
2 51641  87.8804  72.7484 0001771 103.6007 256.5317 13.10372729185344
