[{"OBJECT_NAME":"ONEWEB-0416","OBJECT_ID":"2022-012D","EPOCH":"2025-12-16T07:08:50.862624","MEAN_MOTION":13.10372551,"ECCENTRICITY":0.00012513,"INCLINATION":87.8806,"RA_OF_ASC_NODE":72.7489,"ARG_OF_PERICENTER":110.325,"MEAN_ANOMALY":249.8012,"EPHEMERIS_TYPE":0,"CLASSIFICATION_TYPE":"U","NORAD_CAT_ID":51625,"ELEMENT_SET_NO":999,"REV_AT_EPOCH":18537,"BSTAR":0.0020169971,"MEAN_MOTION_DOT":7.17e-6,"MEAN_MOTION_DDOT":0},{"OBJECT_NAME":"ONEWEB-0422","OBJECT_ID":"2022-012E","EPOCH":"2025-12-16T05:18:35.590464","MEAN_MOTION":13.17648813,"ECCENTRICITY":0.00022717,"INCLINATION":87.9118,"RA_OF_ASC_NODE":42.2274,"ARG_OF_PERICENTER":85.6543,"MEAN_ANOMALY":274.4848,"EPHEMERIS_TYPE":0,"CLASSIFICATION_TYPE":"U","NORAD_CAT_ID":51626,"ELEMENT_SET_NO":999,"REV_AT_EPOCH":18971,"BSTAR":0.00012259127,"MEAN_MOTION_DOT":6.0e-7,"MEAN_MOTION_DDOT":0},{"OBJECT_NAME":"ONEWEB-0423","OBJECT_ID":"2022-012F","EPOCH":"2025-12-16T05:08:51.907488","MEAN_MOTION":13.17648254,"ECCENTRICITY":0.00019311,"INCLINATION":87.9118,"RA_OF_ASC_NODE":42.2387,"ARG_OF_PERICENTER":99.8499,"MEAN_ANOMALY":260.285,"EPHEMERIS_TYPE":0,"CLASSIFICATION_TYPE":"U","NORAD_CAT_ID":51627,"ELEMENT_SET_NO":999,"REV_AT_EPOCH":18960,"BSTAR":0.00014514392,"MEAN_MOTION_DOT":6.9e-7,"MEAN_MOTION_DDOT":0},{"OBJECT_NAME":"ONEWEB-0425","OBJECT_ID":"2022-012G","EPOCH":"2025-12-16T07:23:11.829120","MEAN_MOTION":13.10371802,"ECCENTRICITY":0.0001857,"INCLINATION":87.8815,"RA_OF_ASC_NODE":72.7187,"ARG_OF_PERICENTER":115.3037,"MEAN_ANOMALY":244.8283,"EPHEMERIS_TYPE":0,"CLASSIFICATION_TYPE":"U","NORAD_CAT_ID":51628,"ELEMENT_SET_NO":999,"REV_AT_EPOCH":18537,"BSTAR":0.0013948198,"MEAN_MOTION_DOT":5.0e-6,"MEAN_MOTION_DDOT":0},{"OBJECT_NAME":"ONEWEB-0428","OBJECT_ID":"2022-012H","EPOCH":"2025-12-16T06:54:30.390336","MEAN_MOTION":13.10375105,"ECCENTRICITY":0.00017321,"INCLINATION":87.8808,"RA_OF_ASC_NODE":72.7408,"ARG_OF_PERICENTER":102.8888,"MEAN_ANOMALY":257.2433,"EPHEMERIS_TYPE":0,"CLASSIFICATION_TYPE":"U","NORAD_CAT_ID":51629,"ELEMENT_SET_NO":999,"REV_AT_EPOCH":18533,"BSTAR":0.00094581355,"MEAN_MOTION_DOT":3.43e-6,"MEAN_MOTION_DDOT":0},{"OBJECT_NAME":"ONEWEB-0431","OBJECT_ID":"2022-012J","EPOCH":"2025-12-16T06:11:14.971488","MEAN_MOTION":13.10371563,"ECCENTRICITY":0.00013565,"INCLINATION":87.8814,"RA_OF_ASC_NODE":72.7271,"ARG_OF_PERICENTER":82.9298,"MEAN_ANOMALY":277.1984,"EPHEMERIS_TYPE":0,"CLASSIFICATION_TYPE":"U","NORAD_CAT_ID":51630,"ELEMENT_SET_NO":999,"REV_AT_EPOCH":18538,"BSTAR":-0.0014930097,"MEAN_MOTION_DOT":-5.08e-6,"MEAN_MOTION_DDOT":0},{"OBJECT_NAME":"ONEWEB-0434","OBJECT_ID":"2022-012K","EPOCH":"2025-12-16T05:38:13.321824","MEAN_MOTION":13.1037385,"ECCENTRICITY":0.00021362,"INCLINATION":87.8804,"RA_OF_ASC_NODE":72.7673,"ARG_OF_PERICENTER":121.4297,"MEAN_ANOMALY":238.704,"EPHEMERIS_TYPE":0,"CLASSIFICATION_TYPE":"U","NORAD_CAT_ID":51631,"ELEMENT_SET_NO":999,"REV_AT_EPOCH":18536,"BSTAR":0.0014164126,"MEAN_MOTION_DOT":5.07e-6,"MEAN_MOTION_DDOT":0},{"OBJECT_NAME":"ONEWEB-0435","OBJECT_ID":"2022-012L","EPOCH":"2025-12-16T05:49:57.526752","MEAN_MOTION":13.10370064,"ECCENTRICITY":0.00019342,"INCLINATION":87.8807,"RA_OF_ASC_NODE":72.7558,"ARG_OF_PERICENTER":94.1803,"MEAN_ANOMALY":265.9545,"EPHEMERIS_TYPE":0,"CLASSIFICATION_TYPE":"U","NORAD_CAT_ID":51632,"ELEMENT_SET_NO":999,"REV_AT_EPOCH":18535,"BSTAR":0.00013996949,"MEAN_MOTION_DOT":6.2e-7,"MEAN_MOTION_DDOT":0},{"OBJECT_NAME":"ONEWEB-0436","OBJECT_ID":"2022-012M","EPOCH":"2025-12-16T04:56:42.846144","MEAN_MOTION":13.17647768,"ECCENTRICITY":0.0001856,"INCLINATION":87.9117,"RA_OF_ASC_NODE":42.2186,"ARG_OF_PERICENTER":92.3828,"MEAN_ANOMALY":267.7516,"EPHEMERIS_TYPE":0,"CLASSIFICATION_TYPE":"U","NORAD_CAT_ID":51633,"ELEMENT_SET_NO":999,"REV_AT_EPOCH":18958,"BSTAR":1.5374997e-5,"MEAN_MOTION_DOT":1.9e-7,"MEAN_MOTION_DDOT":0},{"OBJECT_NAME":"ONEWEB-0438","OBJECT_ID":"2022-012N","EPOCH":"2025-12-16T07:16:01.325568","MEAN_MOTION":13.1037133,"ECCENTRICITY":0.00017851,"INCLINATION":87.8809,"RA_OF_ASC_NODE":72.7446,"ARG_OF_PERICENTER":110.8845,"MEAN_ANOMALY":249.2473,"EPHEMERIS_TYPE":0,"CLASSIFICATION_TYPE":"U","NORAD_CAT_ID":51634,"ELEMENT_SET_NO":999,"REV_AT_EPOCH":18539,"BSTAR":0.0019022576,"MEAN_MOTION_DOT":6.77e-6,"MEAN_MOTION_DDOT":0},{"OBJECT_NAME":"ONEWEB-0439","OBJECT_ID":"2022-012P","EPOCH":"2025-12-16T07:20:48.229728","MEAN_MOTION":13.10372382,"ECCENTRICITY":0.00017908,"INCLINATION":87.8807,"RA_OF_ASC_NODE":72.7325,"ARG_OF_PERICENTER":103.8671,"MEAN_ANOMALY":256.2656,"EPHEMERIS_TYPE":0,"CLASSIFICATION_TYPE":"U","NORAD_CAT_ID":51635,"ELEMENT_SET_NO":999,"REV_AT_EPOCH":18537,"BSTAR":0.0018328258,"MEAN_MOTION_DOT":6.53e-6,"MEAN_MOTION_DDOT":0},{"OBJECT_NAME":"ONEWEB-0442","OBJECT_ID":"2022-012Q","EPOCH":"2025-12-16T02:56:24.435456","MEAN_MOTION":13.17650664,"ECCENTRICITY":0.0001728,"INCLINATION":87.9106,"RA_OF_ASC_NODE":42.2826,"ARG_OF_PERICENTER":120.5838,"MEAN_ANOMALY":239.5464,"EPHEMERIS_TYPE":0,"CLASSIFICATION_TYPE":"U","NORAD_CAT_ID":51636,"ELEMENT_SET_NO":999,"REV_AT_EPOCH":18956,"BSTAR":0.00014900932,"MEAN_MOTION_DOT":7.1e-7,"MEAN_MOTION_DDOT":0},{"OBJECT_NAME":"ONEWEB-0443","OBJECT_ID":"2022-012R","EPOCH":"2025-12-16T05:13:43.322592","MEAN_MOTION":13.17648757,"ECCENTRICITY":0.00020964,"INCLINATION":87.9101,"RA_OF_ASC_NODE":42.2685,"ARG_OF_PERICENTER":105.5172,"MEAN_ANOMALY":254.6191,"EPHEMERIS_TYPE":0,"CLASSIFICATION_TYPE":"U","NORAD_CAT_ID":51637,"ELEMENT_SET_NO":999,"REV_AT_EPOCH":18962,"BSTAR":0.00022445147,"MEAN_MOTION_DOT":1.0e-6,"MEAN_MOTION_DDOT":0},{"OBJECT_NAME":"ONEWEB-0444","OBJECT_ID":"2022-012S","EPOCH":"2025-12-16T07:06:27.820512","MEAN_MOTION":13.10373675,"ECCENTRICITY":0.00017635,"INCLINATION":87.8809,"RA_OF_ASC_NODE":72.7331,"ARG_OF_PERICENTER":102.5744,"MEAN_ANOMALY":257.5581,"EPHEMERIS_TYPE":0,"CLASSIFICATION_TYPE":"U","NORAD_CAT_ID":51638,"ELEMENT_SET_NO":999,"REV_AT_EPOCH":18538,"BSTAR":0.0018839697,"MEAN_MOTION_DOT":6.7e-6,"MEAN_MOTION_DDOT":0},{"OBJECT_NAME":"ONEWEB-0445","OBJECT_ID":"2022-012T","EPOCH":"2025-12-16T05:47:34.103616","MEAN_MOTION":13.10369619,"ECCENTRICITY":0.00015335,"INCLINATION":87.8823,"RA_OF_ASC_NODE":72.712,"ARG_OF_PERICENTER":108.3452,"MEAN_ANOMALY":251.7842,"EPHEMERIS_TYPE":0,"CLASSIFICATION_TYPE":"U","NORAD_CAT_ID":51639,"ELEMENT_SET_NO":999,"REV_AT_EPOCH":18538,"BSTAR":0.00042757786,"MEAN_MOTION_DOT":1.62e-6,"MEAN_MOTION_DDOT":0},{"OBJECT_NAME":"ONEWEB-0446","OBJECT_ID":"2022-012U","EPOCH":"2025-12-16T07:04:04.425888","MEAN_MOTION":13.10373769,"ECCENTRICITY":0.0001508,"INCLINATION":87.8811,"RA_OF_ASC_NODE":72.7502,"ARG_OF_PERICENTER":104.4545,"MEAN_ANOMALY":255.675,"EPHEMERIS_TYPE":0,"CLASSIFICATION_TYPE":"U","NORAD_CAT_ID":51640,"ELEMENT_SET_NO":999,"REV_AT_EPOCH":18537,"BSTAR":0.0016080845,"MEAN_MOTION_DOT":5.74e-6,"MEAN_MOTION_DDOT":0},{"OBJECT_NAME":"ONEWEB-0448","OBJECT_ID":"2022-012V","EPOCH":"2025-12-16T07:11:15.071136","MEAN_MOTION":13.10372729,"ECCENTRICITY":0.00017716,"INCLINATION":87.8804,"RA_OF_ASC_NODE":72.7484,"ARG_OF_PERICENTER":103.6007,"MEAN_ANOMALY":256.5317,"EPHEMERIS_TYPE":0,"CLASSIFICATION_TYPE":"U","NORAD_CAT_ID":51641,"ELEMENT_SET_NO":999,"REV_AT_EPOCH":18534,"BSTAR":0.001773063,"MEAN_MOTION_DOT":6.32e-6,"MEAN_MOTION_DDOT":0}]
